YAOGAN-35 01A           
1 49390U 21101A   26068.78009532  .00012075  00000+0  47335-3 0  9995
2 49390  34.9903 183.8731 0005688 189.0601 171.0012 15.24952145241689
STARLINK-35438          
1 66347U 25253AE  26068.46508853  .00017131  00000+0  63054-3 0  9997
2 66347  43.0014 213.4659 0001695 255.7018 104.3646 15.27582677 20218
